{"type": "FeatureCollection", "features": [ {"type": "Feature", "properties": {"norad_id": 33825, "name": "COSMOS 2251 DEB", "group": "cosmos-2251-debris", "lat": 59.89464455920459, "lon": 164.3844913895777, "alt_km": 698.4729544615748, "timestamp": "2025-12-19T18:58:41.978693+00:00", "meta": {"OBJECT_NAME": "COSMOS 2251 DEB", "OBJECT_ID": "1993-036BS", "EPOCH": "2025-12-19T04:01:53.883264", "MEAN_MOTION": 14.69817128, "ECCENTRICITY": 0.0084879, "INCLINATION": 73.9846, "RA_OF_ASC_NODE": 15.2903, "ARG_OF_PERICENTER": 340.7986, "MEAN_ANOMALY": 80.3326, "EPHEMERIS_TYPE": 0, "CLASSIFICATION_TYPE": "U", "NORAD_CAT_ID": 33825, "ELEMENT_SET_NO": 999, "REV_AT_EPOCH": 88974, "BSTAR": 0.00059683285, "MEAN_MOTION_DOT": 3.734e-05, "MEAN_MOTION_DDOT": 0}, "tle": {"line1": "1 33825U 93036BS  25353.16798476  .00003734  00000+0  59683-3 0  9998", "line2": "2 33825  73.9846  15.2903 0084879 340.7986  80.3326 14.69817128889748"}}, "geometry": {"type": "Point", "coordinates": [164.3844913895777, 59.89464455920459]}}, {"type": "Feature", "properties": {"norad_id": 33826, "name": "COSMOS 2251 DEB", "group": "cosmos-2251-debris", "lat": -73.7548092374756, "lon": -64.70248458085031, "alt_km": 784.9707628248734, "timestamp": "2025-12-19T18:58:41.978704+00:00", "meta": {"OBJECT_NAME": "COSMOS 2251 DEB", "OBJECT_ID": "1993-036BT", "EPOCH": "2025-12-19T04:46:33.821184", "MEAN_MOTION": 14.51751977, "ECCENTRICITY": 0.00826681, "INCLINATION": 74.0647, "RA_OF_ASC_NODE": 37.7324, "ARG_OF_PERICENTER": 79.9485, "MEAN_ANOMALY": 335.5686, "EPHEMERIS_TYPE": 0, "CLASSIFICATION_TYPE": "U", "NORAD_CAT_ID": 33826, "ELEMENT_SET_NO": 999, "REV_AT_EPOCH": 87863, "BSTAR": 0.00043752577, "MEAN_MOTION_DOT": 1.81e-05, "MEAN_MOTION_DDOT": 0}, "tle": {"line1": "1 33826U 93036BT  25353.19900256  .00001810  00000+0  43753-3 0  9997", "line2": "2 33826  74.0647  37.7324 0082668  79.9485 335.5686 14.51751977878635"}}, "geometry": {"type": "Point", "coordinates": [-64.70248458085031, -73.7548092374756]}}, {"type": "Feature", "properties": {"norad_id": 33828, "name": "COSMOS 2251 DEB", "group": "cosmos-2251-debris", "lat": -22.86373041645864, "lon": -141.94948191209738, "alt_km": 732.9777423410624, "timestamp": "2025-12-19T18:58:41.978714+00:00", "meta": {"OBJECT_NAME": "COSMOS 2251 DEB", "OBJECT_ID": "1993-036BV", "EPOCH": "2025-12-19T03:03:02.403360", "MEAN_MOTION": 14.44351114, "ECCENTRICITY": 0.00295052, "INCLINATION": 74.0455, "RA_OF_ASC_NODE": 226.2126, "ARG_OF_PERICENTER": 298.1565, "MEAN_ANOMALY": 188.5304, "EPHEMERIS_TYPE": 0, "CLASSIFICATION_TYPE": "U", "NORAD_CAT_ID": 33828, "ELEMENT_SET_NO": 999, "REV_AT_EPOCH": 88405, "BSTAR": 0.00031345757, "MEAN_MOTION_DOT": 1.058e-05, "MEAN_MOTION_DDOT": 0}, "tle": {"line1": "1 33828U 93036BV  25353.12711115  .00001058  00000+0  31346-3 0  9995", "line2": "2 33828  74.0455 226.2126 0029505 298.1565 188.5304 14.44351114884051"}}, "geometry": {"type": "Point", "coordinates": [-141.94948191209738, -22.86373041645864]}}, {"type": "Feature", "properties": {"norad_id": 33830, "name": "COSMOS 2251 DEB", "group": "cosmos-2251-debris", "lat": -40.58602504785753, "lon": -157.6579045738796, "alt_km": 616.6392661491027, "timestamp": "2025-12-19T18:58:41.978725+00:00", "meta": {"OBJECT_NAME": "COSMOS 2251 DEB", "OBJECT_ID": "1993-036BX", "EPOCH": "2025-12-19T01:49:20.523936", "MEAN_MOTION": 14.76966067, "ECCENTRICITY": 0.00425414, "INCLINATION": 74.0316, "RA_OF_ASC_NODE": 217.9429, "ARG_OF_PERICENTER": 336.7332, "MEAN_ANOMALY": 141.6811, "EPHEMERIS_TYPE": 0, "CLASSIFICATION_TYPE": "U", "NORAD_CAT_ID": 33830, "ELEMENT_SET_NO": 999, "REV_AT_EPOCH": 89565, "BSTAR": 0.00057236609, "MEAN_MOTION_DOT": 4.059e-05, "MEAN_MOTION_DDOT": 0}, "tle": {"line1": "1 33830U 93036BX  25353.07593199  .00004059  00000+0  57237-3 0  9993", "line2": "2 33830  74.0316 217.9429 0042541 336.7332 141.6811 14.76966067895654"}}, "geometry": {"type": "Point", "coordinates": [-157.6579045738796, -40.58602504785753]}}, {"type": "Feature", "properties": {"norad_id": 33832, "name": "COSMOS 2251 DEB", "group": "cosmos-2251-debris", "lat": -41.98991347440657, "lon": -178.39295690633108, "alt_km": 696.978978805032, "timestamp": "2025-12-19T18:58:41.978735+00:00", "meta": {"OBJECT_NAME": "COSMOS 2251 DEB", "OBJECT_ID": "1993-036BZ", "EPOCH": "2025-12-19T00:08:38.305824", "MEAN_MOTION": 14.60716793, "ECCENTRICITY": 0.00244884, "INCLINATION": 74.0529, "RA_OF_ASC_NODE": 198.0179, "ARG_OF_PERICENTER": 227.9336, "MEAN_ANOMALY": 282.7247, "EPHEMERIS_TYPE": 0, "CLASSIFICATION_TYPE": "U", "NORAD_CAT_ID": 33832, "ELEMENT_SET_NO": 999, "REV_AT_EPOCH": 88516, "BSTAR": 0.00095588861, "MEAN_MOTION_DOT": 4.652e-05, "MEAN_MOTION_DDOT": 0}, "tle": {"line1": "1 33832U 93036BZ  25353.00599891  .00004652  00000+0  95589-3 0  9994", "line2": "2 33832  74.0529 198.0179 0024488 227.9336 282.7247 14.60716793885165"}}, "geometry": {"type": "Point", "coordinates": [-178.39295690633108, -41.98991347440657]}}, {"type": "Feature", "properties": {"norad_id": 33835, "name": "COSMOS 2251 DEB", "group": "cosmos-2251-debris", "lat": -11.638994154658294, "lon": -89.00117975469158, "alt_km": 666.4700588639853, "timestamp": "2025-12-19T18:58:41.978745+00:00", "meta": {"OBJECT_NAME": "COSMOS 2251 DEB", "OBJECT_ID": "1993-036CC", "EPOCH": "2025-12-18T18:11:26.319264", "MEAN_MOTION": 14.62307996, "ECCENTRICITY": 0.00541953, "INCLINATION": 74.0576, "RA_OF_ASC_NODE": 89.5981, "ARG_OF_PERICENTER": 141.4092, "MEAN_ANOMALY": 15.2384, "EPHEMERIS_TYPE": 0, "CLASSIFICATION_TYPE": "U", "NORAD_CAT_ID": 33835, "ELEMENT_SET_NO": 999, "REV_AT_EPOCH": 88877, "BSTAR": 0.00070685378, "MEAN_MOTION_DOT": 3.615e-05, "MEAN_MOTION_DDOT": 0}, "tle": {"line1": "1 33835U 93036CC  25352.75794351  .00003615  00000+0  70685-3 0  9994", "line2": "2 33835  74.0576  89.5981 0054195 141.4092  15.2384 14.62307996888776"}}, "geometry": {"type": "Point", "coordinates": [-89.00117975469158, -11.638994154658294]}}, {"type": "Feature", "properties": {"norad_id": 33836, "name": "COSMOS 2251 DEB", "group": "cosmos-2251-debris", "lat": -59.47503966196281, "lon": -144.08884779726046, "alt_km": 651.8037305625821, "timestamp": "2025-12-19T18:58:41.978755+00:00", "meta": {"OBJECT_NAME": "COSMOS 2251 DEB", "OBJECT_ID": "1993-036CD", "EPOCH": "2025-12-19T03:45:32.916672", "MEAN_MOTION": 14.79727343, "ECCENTRICITY": 0.00226903, "INCLINATION": 73.9974, "RA_OF_ASC_NODE": 246.2875, "ARG_OF_PERICENTER": 97.0244, "MEAN_ANOMALY": 62.8284, "EPHEMERIS_TYPE": 0, "CLASSIFICATION_TYPE": "U", "NORAD_CAT_ID": 33836, "ELEMENT_SET_NO": 999, "REV_AT_EPOCH": 64183, "BSTAR": 0.00088588181, "MEAN_MOTION_DOT": 6.66e-05, "MEAN_MOTION_DDOT": 0}, "tle": {"line1": "1 33836U 93036CD  25353.15663098  .00006660  00000+0  88588-3 0  9997", "line2": "2 33836  73.9974 246.2875 0022690  97.0244  62.8284 14.79727343641832"}}, "geometry": {"type": "Point", "coordinates": [-144.08884779726046, -59.47503966196281]}}, {"type": "Feature", "properties": {"norad_id": 33837, "name": "COSMOS 2251 DEB", "group": "cosmos-2251-debris", "lat": -71.51853318679173, "lon": -78.60996488461957, "alt_km": 704.7680207546819, "timestamp": "2025-12-19T18:58:41.978766+00:00", "meta": {"OBJECT_NAME": "COSMOS 2251 DEB", "OBJECT_ID": "1993-036CE", "EPOCH": "2025-12-19T04:32:18.953664", "MEAN_MOTION": 14.50714376, "ECCENTRICITY": 0.00359111, "INCLINATION": 74.0126, "RA_OF_ASC_NODE": 43.4559, "ARG_OF_PERICENTER": 264.145, "MEAN_ANOMALY": 95.5616, "EPHEMERIS_TYPE": 0, "CLASSIFICATION_TYPE": "U", "NORAD_CAT_ID": 33837, "ELEMENT_SET_NO": 999, "REV_AT_EPOCH": 88889, "BSTAR": 0.00018310667, "MEAN_MOTION_DOT": 6.97e-06, "MEAN_MOTION_DDOT": 0}, "tle": {"line1": "1 33837U 93036CE  25353.18910826  .00000697  00000+0  18311-3 0  9996", "line2": "2 33837  74.0126  43.4559 0035911 264.1450  95.5616 14.50714376888898"}}, "geometry": {"type": "Point", "coordinates": [-78.60996488461957, -71.51853318679173]}}, {"type": "Feature", "properties": {"norad_id": 33838, "name": "COSMOS 2251 DEB", "group": "cosmos-2251-debris", "lat": 67.44450903455787, "lon": -179.82542495450497, "alt_km": 743.529963386015, "timestamp": "2025-12-19T18:58:41.978776+00:00", "meta": {"OBJECT_NAME": "COSMOS 2251 DEB", "OBJECT_ID": "1993-036CF", "EPOCH": "2025-12-18T20:00:12.340224", "MEAN_MOTION": 14.48380976, "ECCENTRICITY": 0.00275019, "INCLINATION": 74.0361, "RA_OF_ASC_NODE": 138.4014, "ARG_OF_PERICENTER": 259.447, "MEAN_ANOMALY": 224.9911, "EPHEMERIS_TYPE": 0, "CLASSIFICATION_TYPE": "U", "NORAD_CAT_ID": 33838, "ELEMENT_SET_NO": 999, "REV_AT_EPOCH": 88657, "BSTAR": 0.00031263295, "MEAN_MOTION_DOT": 1.148e-05, "MEAN_MOTION_DDOT": 0}, "tle": {"line1": "1 33838U 93036CF  25352.83347616  .00001148  00000+0  31263-3 0  9992", "line2": "2 33838  74.0361 138.4014 0027501 259.4470 224.9911 14.48380976886577"}}, "geometry": {"type": "Point", "coordinates": [-179.82542495450497, 67.44450903455787]}}, {"type": "Feature", "properties": {"norad_id": 33839, "name": "COSMOS 2251 DEB", "group": "cosmos-2251-debris", "lat": 45.947651194481374, "lon": -149.85981091198292, "alt_km": 689.7241519258787, "timestamp": "2025-12-19T18:58:41.978789+00:00", "meta": {"OBJECT_NAME": "COSMOS 2251 DEB", "OBJECT_ID": "1993-036CG", "EPOCH": "2025-12-19T06:12:07.053408", "MEAN_MOTION": 14.6443556, "ECCENTRICITY": 0.00852723, "INCLINATION": 74.0376, "RA_OF_ASC_NODE": 193.9541, "ARG_OF_PERICENTER": 304.5298, "MEAN_ANOMALY": 177.6095, "EPHEMERIS_TYPE": 0, "CLASSIFICATION_TYPE": "U", "NORAD_CAT_ID": 33839, "ELEMENT_SET_NO": 999, "REV_AT_EPOCH": 89675, "BSTAR": 0.00015010066, "MEAN_MOTION_DOT": 8.03e-06, "MEAN_MOTION_DDOT": 0}, "tle": {"line1": "1 33839U 93036CG  25353.25841497  .00000803  00000+0  15010-3 0  9995", "line2": "2 33839  74.0376 193.9541 0085272 304.5298 177.6095 14.64435560896750"}}, "geometry": {"type": "Point", "coordinates": [-149.85981091198292, 45.947651194481374]}}]}